NORAD_CAT_ID,OBJECT_NAME,OBJECT_TYPE,EPOCH,MEAN_MOTION,ECCENTRICITY,INCLINATION,RA_OF_ASC_NODE,ARG_OF_PERICENTER,MEAN_ANOMALY,BSTAR,MEAN_MOTION_DOT,MEAN_MOTION_DDOT,TLE_LINE0,TLE_LINE1,TLE_LINE2,SEMIMAJOR_AXIS,PERIOD,APOGEE,PERIGEE,DECAYED
50170.0,STARLINK-3245,PAYLOAD,2024-02-13 16:45:41,15.08832728,0.0001719,53.2181,38.4073,79.8354,280.2832,4.9541e-05,5e-06,0.0,0 STARLINK-3245,1 50170U 21125Q   24044.69839291  .00000500  00000-0  49541-4 0  9997,2 50170  53.2181  38.4073 0001719  79.8354 280.2832 15.08832728122132,6917.903,95.438,540.957,538.578,0.0
50170.0,STARLINK-3245,PAYLOAD,2024-02-13 23:07:13,15.08844464,0.0002019,53.219,37.2207,75.7968,284.3248,-0.00015831,-2.807e-05,0.0,0 STARLINK-3245,1 50170U 21125Q   24044.96335449 -.00002807  00000-0 -15831-3 0  9991,2 50170  53.2190  37.2207 0002019  75.7968 284.3248 15.08844464122651,6917.867,95.437,541.128,538.335,0.0
50170.0,STARLINK-3245,PAYLOAD,2024-02-14 08:39:31,15.08852014,0.0001732,53.2183,35.4326,87.0611,273.058,-9.0686e-05,-1.732e-05,0.0,0 STARLINK-3245,1 50170U 21125Q   24045.36078498 -.00001732  00000-0 -90686-4 0  9992,2 50170  53.2183  35.4326 0001732  87.0611 273.0580 15.08852014122235,6917.844,95.437,540.907,538.51,0.0
50170.0,STARLINK-3245,PAYLOAD,2024-02-14 16:36:27,15.08845786,0.0001827,53.218,33.946,86.5711,273.549,-0.00013652,-2.461e-05,0.0,0 STARLINK-3245,1 50170U 21125Q   24045.69198965 -.00002461  00000-0 -13652-3 0  9997,2 50170  53.2180  33.9460 0001827  86.5711 273.5490 15.08845786122282,6917.863,95.437,540.992,538.464,0.0
50170.0,STARLINK-3245,PAYLOAD,2024-02-15 03:44:10,15.08836591,0.0002067,53.2181,31.8643,92.6817,267.4412,1.8637e-05,8e-08,0.0,0 STARLINK-3245,1 50170U 21125Q   24046.15567568  .00000008  00000-0  18637-4 0  9990,2 50170  53.2181  31.8643 0002067  92.6817 267.4412 15.08836591122353,6917.891,95.438,541.186,538.326,0.0
50170.0,STARLINK-3245,PAYLOAD,2024-02-15 08:30:19,15.08844651,0.0002018,53.2172,30.9709,96.3051,263.8171,6.7506e-05,7.86e-06,0.0,0 STARLINK-3245,1 50170U 21125Q   24046.35438888  .00000786  00000-0  67506-4 0  9996,2 50170  53.2172  30.9709 0002018  96.3051 263.8171 15.08844651122384,6917.866,95.437,541.127,538.335,0.0
50170.0,STARLINK-3245,PAYLOAD,2024-02-15 16:27:16,15.08828334,0.0002088,53.2195,29.4867,89.8153,270.3078,2.7761e-05,1.53e-06,0.0,0 STARLINK-3245,1 50170U 21125Q   24046.68560241  .00000153  00000-0  27761-4 0  9998,2 50170  53.2195  29.4867 0002088  89.8153 270.3078 15.08828334122439,6917.916,95.438,541.226,538.337,0.0
50170.0,STARLINK-3245,PAYLOAD,2024-02-16 05:10:20,15.08831913,0.0001737,53.218,27.1059,97.1499,262.9691,0.00020481,2.972e-05,0.0,0 STARLINK-3245,1 50170U 21125Q   24047.21551737  .00002972  00000-0  20481-3 0  9990,2 50170  53.2180  27.1059 0001737  97.1499 262.9691 15.08831913122510,6917.905,95.438,540.972,538.568,0.0
50170.0,STARLINK-3245,PAYLOAD,2024-02-16 08:21:06,15.08844439,0.0001965,53.2184,26.5102,98.2486,261.8729,9.2008e-05,1.177e-05,0.0,0 STARLINK-3245,1 50170U 21125Q   24047.34799233  .00001177  00000-0  92008-4 0  9990,2 50170  53.2184  26.5102 0001965  98.2486 261.8729 15.08844439123010,6917.867,95.437,541.091,538.372,0.0
50170.0,STARLINK-3245,PAYLOAD,2024-02-16 22:39:35,15.08835279,0.0002153,53.2192,23.8318,106.3898,253.7331,2.7053e-05,1.42e-06,0.0,0 STARLINK-3245,1 50170U 21125Q   24047.94416133  .00000142  00000-0  27053-4 0  9990,2 50170  53.2192  23.8318 0002153 106.3898 253.7331 15.08835279123107,6917.895,95.438,541.249,538.27,0.0
50170.0,STARLINK-3245,PAYLOAD,2024-02-17 05:01:07,15.08838147,0.0002069,53.2191,22.648,92.8264,267.2965,7.0976e-05,8.41e-06,0.0,0 STARLINK-3245,1 50170U 21125Q   24048.20911987  .00000841  00000-0  70976-4 0  9995,2 50170  53.2191  22.6480 0002069  92.8264 267.2965 15.08838147122665,6917.886,95.438,541.182,538.32,0.0
50170.0,STARLINK-3245,PAYLOAD,2024-02-17 22:30:22,15.08835331,0.0001825,53.219,19.3776,92.2512,267.8689,5.1638e-05,5.34e-06,0.0,0 STARLINK-3245,1 50170U 21125Q   24048.93776254  .00000534  00000-0  51638-4 0  9994,2 50170  53.2190  19.3776 0001825  92.2512 267.8689 15.08835331123251,6917.895,95.438,541.022,538.497,0.0
50170.0,STARLINK-3245,PAYLOAD,2024-02-18 04:51:54,15.08846527,0.0001819,53.219,18.1883,98.4988,261.621,0.00014089,1.955e-05,0.0,0 STARLINK-3245,1 50170U 21125Q   24049.20271304  .00001955  00000-0  14089-3 0  9997,2 50170  53.2190  18.1883 0001819  98.4988 261.6210 15.08846527122817,6917.86,95.437,540.984,538.467,0.0
50170.0,STARLINK-3245,PAYLOAD,2024-02-18 14:24:15,15.08819615,0.0002167,53.2194,16.4035,92.9536,267.1704,-0.00023061,-3.955e-05,0.0,0 STARLINK-3245,1 50170U 21125Q   24049.60018117 -.00003955  00000-0 -23061-3 0  9996,2 50170  53.2194  16.4035 0002167  92.9536 267.1704 15.08819615123353,6917.943,95.439,541.307,538.309,0.0
50170.0,STARLINK-3245,PAYLOAD,2024-02-18 20:45:48,15.08810973,0.0001983,53.2191,15.2143,91.794,268.3279,-0.00010755,-1.998e-05,0.0,0 STARLINK-3245,1 50170U 21125Q   24049.86514745 -.00001998  00000-0 -10755-3 0  9993,2 50170  53.2191  15.2143 0001983  91.7940 268.3279 15.08810973122917,6917.969,95.439,541.206,538.462,0.0
50170.0,STARLINK-3245,PAYLOAD,2024-02-19 06:18:07,15.08817735,0.000187,53.22,13.4314,97.0811,263.0394,-0.00011931,-2.185e-05,0.0,0 STARLINK-3245,1 50170U 21125Q   24050.26258932 -.00002185  00000-0 -11931-3 0  9998,2 50170  53.2200  13.4314 0001870  97.0811 263.0394 15.08817735122978,6917.948,95.439,541.107,538.52,0.0
50170.0,STARLINK-3245,PAYLOAD,2024-02-19 14:15:02,15.08830968,0.0001694,53.2196,11.9413,93.6275,266.4911,-4.8052e-05,-1.053e-05,0.0,0 STARLINK-3245,1 50170U 21125Q   24050.59378097 -.00001053  00000-0 -48052-4 0  9997,2 50170  53.2196  11.9413 0001694  93.6275 266.4911 15.08830968123500,6917.908,95.438,540.945,538.601,0.0
50170.0,STARLINK-3245,PAYLOAD,2024-02-20 02:58:06,15.08848868,0.0001847,53.2196,9.5633,96.6013,263.5189,8.2137e-05,1.02e-05,0.0,0 STARLINK-3245,1 50170U 21125Q   24051.12368827  .00001020  00000-0  82137-4 0  9991,2 50170  53.2196   9.5633 0001847  96.6013 263.5189 15.08848868123109,6917.853,95.437,540.996,538.441,0.0
50170.0,STARLINK-3245,PAYLOAD,2024-02-20 06:08:52,15.08855523,0.0001804,53.2198,8.9708,107.1875,252.9315,0.00021174,3.085e-05,0.0,0 STARLINK-3245,1 50170U 21125Q   24051.25616171  .00003085  00000-0  21174-3 0  9999,2 50170  53.2198   8.9708 0001804 107.1875 252.9315 15.08855523123125,6917.833,95.437,540.946,538.45,0.0
50170.0,STARLINK-3245,PAYLOAD,2024-02-20 14:05:48,15.08854628,0.0002007,53.2196,7.4823,95.0456,265.0766,9.2138e-05,1.179e-05,0.0,0 STARLINK-3245,1 50170U 21125Q   24051.58736394  .00001179  00000-0  92138-4 0  9996,2 50170  53.2196   7.4823 0002007  95.0456 265.0766 15.08854628123659,6917.836,95.437,541.089,538.312,0.0
50170.0,STARLINK-3245,PAYLOAD,2024-02-20 20:27:21,15.0883608,0.0001824,53.2182,6.2957,94.9229,265.1972,0.00037364,5.663e-05,0.0,0 STARLINK-3245,1 50170U 21125Q   24051.85233143  .00005663  00000-0  37364-3 0  9991,2 50170  53.2182   6.2957 0001824  94.9229 265.1972 15.08836080123697,6917.892,95.438,541.019,538.496,0.0
50170.0,STARLINK-3245,PAYLOAD,2024-02-21 02:48:54,15.08836477,0.0001805,53.2192,5.1073,98.684,261.4356,0.00034165,5.153e-05,0.0,0 STARLINK-3245,1 50170U 21125Q   24052.11729285  .00005153  00000-0  34165-3 0  9998,2 50170  53.2192   5.1073 0001805  98.6840 261.4356 15.08836477123251,6917.891,95.438,541.005,538.507,0.0
50170.0,STARLINK-3245,PAYLOAD,2024-02-21 04:24:17,15.08837565,0.0001724,53.2194,4.8102,92.001,268.1179,0.00037168,5.632e-05,0.0,0 STARLINK-3245,1 50170U 21125Q   24052.18353176  .00005632  00000-0  37168-3 0  9995,2 50170  53.2194   4.8102 0001724  92.0010 268.1179 15.08837565123749,6917.888,95.438,540.945,538.56,0.0
50170.0,STARLINK-3245,PAYLOAD,2024-02-22 02:39:41,15.08846009,0.0001957,53.2203,0.6429,80.8786,279.2428,-4.6995e-05,-1.036e-05,0.0,0 STARLINK-3245,1 50170U 21125Q   24053.11089260 -.00001036  00000-0 -46995-4 0  9994,2 50170  53.2203   0.6429 0001957  80.8786 279.2428 15.08846009123887,6917.862,95.437,541.081,538.373,0.0
50170.0,STARLINK-3245,PAYLOAD,2024-02-23 02:30:28,15.08801153,0.0001821,53.2205,356.1808,106.2795,253.8398,0.00065165,0.00010087,0.0,0 STARLINK-3245,1 50170U 21125Q   24054.10449527  .00010087  00000-0  65165-3 0  9993,2 50170  53.2205 356.1808 0001821 106.2795 253.8398 15.08801153123551,6917.999,95.44,541.124,538.604,0.0
50170.0,STARLINK-3245,PAYLOAD,2024-02-23 19:59:42,15.08838323,0.0001804,53.2196,352.9124,87.6372,272.4827,6.2911e-05,7.13e-06,0.0,0 STARLINK-3245,1 50170U 21125Q   24054.83312658  .00000713  00000-0  62911-4 0  9999,2 50170  53.2196 352.9124 0001804  87.6372 272.4827 15.08838323123664,6917.886,95.438,540.999,538.503,0.0
50170.0,STARLINK-3245,PAYLOAD,2024-02-24 05:32:00,15.08843352,0.0001713,53.2188,351.1253,114.6611,245.456,6.9192e-05,8.13e-06,0.0,0 STARLINK-3245,1 50170U 21125Q   24055.23056131  .00000813  00000-0  69192-4 0  9994,2 50170  53.2188 351.1253 0001713 114.6611 245.4560 15.08843352124208,6917.87,95.437,540.92,538.55,0.0
50170.0,STARLINK-3245,PAYLOAD,2024-02-25 05:22:47,15.08840197,0.0001782,53.2184,346.6645,120.2542,239.8627,6.1366e-05,6.89e-06,0.0,0 STARLINK-3245,1 50170U 21125Q   24056.22416243  .00000689  00000-0  61366-4 0  9994,2 50170  53.2184 346.6645 0001782 120.2542 239.8627 15.08840197123877,6917.88,95.438,540.978,538.512,0.0
50170.0,STARLINK-3245,PAYLOAD,2024-02-25 11:44:20,15.08839535,0.0001501,53.219,345.4766,97.7848,262.3315,7.577e-05,9.18e-06,0.0,0 STARLINK-3245,1 50170U 21125Q   24056.48912378  .00000918  00000-0  75770-4 0  9991,2 50170  53.2190 345.4766 0001501  97.7848 262.3315 15.08839535124398,6917.882,95.438,540.785,538.708,0.0
50170.0,STARLINK-3245,PAYLOAD,2024-02-25 22:52:02,15.08840689,0.0001465,53.2195,343.3953,96.3667,263.7492,2.4398e-05,1e-06,0.0,0 STARLINK-3245,1 50170U 21125Q   24056.95280469  .00000100  00000-0  24398-4 0  9995,2 50170  53.2195 343.3953 0001465  96.3667 263.7492 15.08840689124462,6917.878,95.438,540.757,538.73,0.0
